[{"OBJECT_NAME":"ESEO","OBJECT_ID":"2018-099AL","EPOCH":"2026-03-09T15:43:37.559712","MEAN_MOTION":15.03914518,"ECCENTRICITY":0.00110626,"INCLINATION":97.4113,"RA_OF_ASC_NODE":110.2601,"ARG_OF_PERICENTER":317.6,"MEAN_ANOMALY":42.4371,"EPHEMERIS_TYPE":0,"CLASSIFICATION_TYPE":"U","NORAD_CAT_ID":43792,"ELEMENT_SET_NO":999,"REV_AT_EPOCH":39684,"BSTAR":0.00020934561,"MEAN_MOTION_DOT":2.831e-5,"MEAN_MOTION_DDOT":0},{"OBJECT_NAME":"STARLINK-5588","OBJECT_ID":"2023-013AW","EPOCH":"2026-03-09T08:44:44.043360","MEAN_MOTION":15.02530469,"ECCENTRICITY":0.00014226,"INCLINATION":43.0042,"RA_OF_ASC_NODE":314.817,"ARG_OF_PERICENTER":263.0302,"MEAN_ANOMALY":97.0379,"EPHEMERIS_TYPE":0,"CLASSIFICATION_TYPE":"U","NORAD_CAT_ID":55375,"ELEMENT_SET_NO":999,"REV_AT_EPOCH":17151,"BSTAR":0.00028402073,"MEAN_MOTION_DOT":3.634e-5,"MEAN_MOTION_DDOT":0}]
