ESEO                    
1 43792U 18099AL  26068.65529582  .00002831  00000+0  20935-3 0  9991
2 43792  97.4113 110.2601 0011063 317.6000  42.4371 15.03914518396849
STARLINK-5588           
1 55375U 23013AW  26068.36439865  .00003634  00000+0  28402-3 0  9994
2 55375  43.0042 314.8170 0001422 263.0302  97.0379 15.02530469171514
